{"type": "FeatureCollection", "features": [ {"type": "Feature", "properties": {"norad_id": 66889, "name": "STARLINK-35852", "group": "last-30-days", "lat": 39.37544900838014, "lon": 153.10236939390128, "alt_km": 377.46103442403455, "timestamp": "2025-12-25T07:41:08.450398+00:00", "meta": {"OBJECT_NAME": "STARLINK-35852", "OBJECT_ID": "2025-283M", "EPOCH": "2025-12-24T22:00:03.000096", "MEAN_MOTION": 15.63263099, "ECCENTRICITY": 0.00010244, "INCLINATION": 53.1601, "RA_OF_ASC_NODE": 13.0437, "ARG_OF_PERICENTER": 78.6094, "MEAN_ANOMALY": 297.8418, "EPHEMERIS_TYPE": 0, "CLASSIFICATION_TYPE": "U", "NORAD_CAT_ID": 66889, "ELEMENT_SET_NO": 999, "REV_AT_EPOCH": 438, "BSTAR": -0.023857485, "MEAN_MOTION_DOT": -0.01964188, "MEAN_MOTION_DDOT": 0}, "tle": {"line1": "1 66889U 25283M   25358.91670139 -.01964188  00000+0 -23857-1 0  9990", "line2": "2 66889  53.1601  13.0437 0001024  78.6094 297.8418 15.63263099  4382"}}, "geometry": {"type": "Point", "coordinates": [153.10236939390128, 39.37544900838014]}}, {"type": "Feature", "properties": {"norad_id": 66890, "name": "STARLINK-35885", "group": "last-30-days", "lat": 38.14930744311963, "lon": 154.99317184658167, "alt_km": 377.6830891139898, "timestamp": "2025-12-25T07:41:08.450408+00:00", "meta": {"OBJECT_NAME": "STARLINK-35885", "OBJECT_ID": "2025-283N", "EPOCH": "2025-12-24T22:00:03.000096", "MEAN_MOTION": 15.63264244, "ECCENTRICITY": 0.00010104, "INCLINATION": 53.1603, "RA_OF_ASC_NODE": 13.0401, "ARG_OF_PERICENTER": 77.4562, "MEAN_ANOMALY": 300.9111, "EPHEMERIS_TYPE": 0, "CLASSIFICATION_TYPE": "U", "NORAD_CAT_ID": 66890, "ELEMENT_SET_NO": 999, "REV_AT_EPOCH": 438, "BSTAR": -0.023872773, "MEAN_MOTION_DOT": -0.01965364, "MEAN_MOTION_DDOT": 0}, "tle": {"line1": "1 66890U 25283N   25358.91670139 -.01965364  00000+0 -23873-1 0  9997", "line2": "2 66890  53.1603  13.0401 0001010  77.4562 300.9111 15.63264244  4388"}}, "geometry": {"type": "Point", "coordinates": [154.99317184658167, 38.14930744311963]}}, {"type": "Feature", "properties": {"norad_id": 66891, "name": "STARLINK-35855", "group": "last-30-days", "lat": 36.893262642985434, "lon": 156.8198035409079, "alt_km": 377.89092530842936, "timestamp": "2025-12-25T07:41:08.450418+00:00", "meta": {"OBJECT_NAME": "STARLINK-35855", "OBJECT_ID": "2025-283P", "EPOCH": "2025-12-24T22:00:03.000096", "MEAN_MOTION": 15.63265261, "ECCENTRICITY": 0.00010271, "INCLINATION": 53.1599, "RA_OF_ASC_NODE": 13.0359, "ARG_OF_PERICENTER": 77.6572, "MEAN_ANOMALY": 302.6264, "EPHEMERIS_TYPE": 0, "CLASSIFICATION_TYPE": "U", "NORAD_CAT_ID": 66891, "ELEMENT_SET_NO": 999, "REV_AT_EPOCH": 438, "BSTAR": -0.023889037, "MEAN_MOTION_DOT": -0.01966624, "MEAN_MOTION_DDOT": 0}, "tle": {"line1": "1 66891U 25283P   25358.91670139 -.01966624  00000+0 -23889-1 0  9995", "line2": "2 66891  53.1599  13.0359 0001027  77.6572 302.6264 15.63265261  4384"}}, "geometry": {"type": "Point", "coordinates": [156.8198035409079, 36.893262642985434]}}, {"type": "Feature", "properties": {"norad_id": 66892, "name": "STARLINK-35883", "group": "last-30-days", "lat": 35.60960861220819, "lon": 158.5872676408525, "alt_km": 378.0605328000156, "timestamp": "2025-12-25T07:41:08.450427+00:00", "meta": {"OBJECT_NAME": "STARLINK-35883", "OBJECT_ID": "2025-283Q", "EPOCH": "2025-12-24T22:00:03.000096", "MEAN_MOTION": 15.63262014, "ECCENTRICITY": 0.00011525, "INCLINATION": 53.1598, "RA_OF_ASC_NODE": 13.0314, "ARG_OF_PERICENTER": 79.3151, "MEAN_ANOMALY": 302.8903, "EPHEMERIS_TYPE": 0, "CLASSIFICATION_TYPE": "U", "NORAD_CAT_ID": 66892, "ELEMENT_SET_NO": 999, "REV_AT_EPOCH": 432, "BSTAR": -0.023893509, "MEAN_MOTION_DOT": -0.01966814, "MEAN_MOTION_DDOT": 0}, "tle": {"line1": "1 66892U 25283Q   25358.91670139 -.01966814  00000+0 -23894-1 0  9993", "line2": "2 66892  53.1598  13.0314 0001152  79.3151 302.8903 15.63262014  4325"}}, "geometry": {"type": "Point", "coordinates": [158.5872676408525, 35.60960861220819]}}, {"type": "Feature", "properties": {"norad_id": 66893, "name": "STARLINK-36033", "group": "last-30-days", "lat": 34.302408423366025, "lon": 160.2973005712055, "alt_km": 378.31818424326957, "timestamp": "2025-12-25T07:41:08.450439+00:00", "meta": {"OBJECT_NAME": "STARLINK-36033", "OBJECT_ID": "2025-283R", "EPOCH": "2025-12-24T22:00:03.000096", "MEAN_MOTION": 15.63259862, "ECCENTRICITY": 0.00011027, "INCLINATION": 53.16, "RA_OF_ASC_NODE": 13.0276, "ARG_OF_PERICENTER": 76.8108, "MEAN_ANOMALY": 307.3098, "EPHEMERIS_TYPE": 0, "CLASSIFICATION_TYPE": "U", "NORAD_CAT_ID": 66893, "ELEMENT_SET_NO": 999, "REV_AT_EPOCH": 438, "BSTAR": -0.02381425, "MEAN_MOTION_DOT": -0.01960888, "MEAN_MOTION_DDOT": 0}, "tle": {"line1": "1 66893U 25283R   25358.91670139 -.01960888  00000+0 -23814-1 0  9991", "line2": "2 66893  53.1600  13.0276 0001102  76.8108 307.3098 15.63259862  4384"}}, "geometry": {"type": "Point", "coordinates": [160.2973005712055, 34.302408423366025]}}, {"type": "Feature", "properties": {"norad_id": 66894, "name": "STARLINK-35718", "group": "last-30-days", "lat": 32.97157591153981, "lon": 161.95539449982925, "alt_km": 378.5372663855642, "timestamp": "2025-12-25T07:41:08.450449+00:00", "meta": {"OBJECT_NAME": "STARLINK-35718", "OBJECT_ID": "2025-283S", "EPOCH": "2025-12-24T22:00:03.000096", "MEAN_MOTION": 15.63264689, "ECCENTRICITY": 0.00010699, "INCLINATION": 53.16, "RA_OF_ASC_NODE": 13.0245, "ARG_OF_PERICENTER": 80.9162, "MEAN_ANOMALY": 305.1186, "EPHEMERIS_TYPE": 0, "CLASSIFICATION_TYPE": "U", "NORAD_CAT_ID": 66894, "ELEMENT_SET_NO": 999, "REV_AT_EPOCH": 438, "BSTAR": -0.023884414, "MEAN_MOTION_DOT": -0.0196628, "MEAN_MOTION_DDOT": 0}, "tle": {"line1": "1 66894U 25283S   25358.91670139 -.01966280  00000+0 -23884-1 0  9991", "line2": "2 66894  53.1600  13.0245 0001069  80.9162 305.1186 15.63264689  4386"}}, "geometry": {"type": "Point", "coordinates": [161.95539449982925, 32.97157591153981]}}, {"type": "Feature", "properties": {"norad_id": 66895, "name": "STARLINK-35971", "group": "last-30-days", "lat": 30.247421824726302, "lon": 165.12187252458548, "alt_km": 379.0131893770549, "timestamp": "2025-12-25T07:41:08.450461+00:00", "meta": {"OBJECT_NAME": "STARLINK-35971", "OBJECT_ID": "2025-283T", "EPOCH": "2025-12-24T22:00:03.000096", "MEAN_MOTION": 15.63259752, "ECCENTRICITY": 0.00011443, "INCLINATION": 53.1599, "RA_OF_ASC_NODE": 13.0144, "ARG_OF_PERICENTER": 77.543, "MEAN_ANOMALY": 312.3269, "EPHEMERIS_TYPE": 0, "CLASSIFICATION_TYPE": "U", "NORAD_CAT_ID": 66895, "ELEMENT_SET_NO": 999, "REV_AT_EPOCH": 438, "BSTAR": -0.023796004, "MEAN_MOTION_DOT": -0.01959588, "MEAN_MOTION_DDOT": 0}, "tle": {"line1": "1 66895U 25283T   25358.91670139 -.01959588  00000+0 -23796-1 0  9997", "line2": "2 66895  53.1599  13.0144 0001144  77.5430 312.3269 15.63259752  4383"}}, "geometry": {"type": "Point", "coordinates": [165.12187252458548, 30.247421824726302]}}, {"type": "Feature", "properties": {"norad_id": 66896, "name": "STARLINK-35791", "group": "last-30-days", "lat": 31.619674107952303, "lon": 163.56055289771572, "alt_km": 378.7920272002748, "timestamp": "2025-12-25T07:41:08.450471+00:00", "meta": {"OBJECT_NAME": "STARLINK-35791", "OBJECT_ID": "2025-283U", "EPOCH": "2025-12-24T22:00:03.000096", "MEAN_MOTION": 15.63261904, "ECCENTRICITY": 0.00010532, "INCLINATION": 53.1598, "RA_OF_ASC_NODE": 13.0187, "ARG_OF_PERICENTER": 78.7755, "MEAN_ANOMALY": 309.1766, "EPHEMERIS_TYPE": 0, "CLASSIFICATION_TYPE": "U", "NORAD_CAT_ID": 66896, "ELEMENT_SET_NO": 999, "REV_AT_EPOCH": 438, "BSTAR": -0.023829313, "MEAN_MOTION_DOT": -0.01962085, "MEAN_MOTION_DDOT": 0}, "tle": {"line1": "1 66896U 25283U   25358.91670139 -.01962085  00000+0 -23829-1 0  9991", "line2": "2 66896  53.1598  13.0187 0001053  78.7755 309.1766 15.63261904  4380"}}, "geometry": {"type": "Point", "coordinates": [163.56055289771572, 31.619674107952303]}}, {"type": "Feature", "properties": {"norad_id": 66897, "name": "STARLINK-36079", "group": "last-30-days", "lat": 28.85770839968812, "lon": 166.64007854329085, "alt_km": 379.3099324810173, "timestamp": "2025-12-25T07:41:08.450483+00:00", "meta": {"OBJECT_NAME": "STARLINK-36079", "OBJECT_ID": "2025-283V", "EPOCH": "2025-12-24T22:00:03.000096", "MEAN_MOTION": 15.6326553, "ECCENTRICITY": 0.00010082, "INCLINATION": 53.1599, "RA_OF_ASC_NODE": 13.0112, "ARG_OF_PERICENTER": 76.6071, "MEAN_ANOMALY": 315.1778, "EPHEMERIS_TYPE": 0, "CLASSIFICATION_TYPE": "U", "NORAD_CAT_ID": 66897, "ELEMENT_SET_NO": 999, "REV_AT_EPOCH": 438, "BSTAR": -0.023892416, "MEAN_MOTION_DOT": -0.01966874, "MEAN_MOTION_DDOT": 0}, "tle": {"line1": "1 66897U 25283V   25358.91670139 -.01966874  00000+0 -23892-1 0  9992", "line2": "2 66897  53.1599  13.0112 0001008  76.6071 315.1778 15.63265530  4387"}}, "geometry": {"type": "Point", "coordinates": [166.64007854329085, 28.85770839968812]}}, {"type": "Feature", "properties": {"norad_id": 66898, "name": "STARLINK-36065", "group": "last-30-days", "lat": 27.450976171081855, "lon": 168.11711984528984, "alt_km": 379.5250467572596, "timestamp": "2025-12-25T07:41:08.450495+00:00", "meta": {"OBJECT_NAME": "STARLINK-36065", "OBJECT_ID": "2025-283W", "EPOCH": "2025-12-24T22:00:03.000096", "MEAN_MOTION": 15.63261823, "ECCENTRICITY": 0.00011732, "INCLINATION": 53.16, "RA_OF_ASC_NODE": 13.0067, "ARG_OF_PERICENTER": 75.2132, "MEAN_ANOMALY": 318.489, "EPHEMERIS_TYPE": 0, "CLASSIFICATION_TYPE": "U", "NORAD_CAT_ID": 66898, "ELEMENT_SET_NO": 999, "REV_AT_EPOCH": 438, "BSTAR": -0.023827882, "MEAN_MOTION_DOT": -0.01962061, "MEAN_MOTION_DDOT": 0}, "tle": {"line1": "1 66898U 25283W   25358.91670139 -.01962061  00000+0 -23828-1 0  9996", "line2": "2 66898  53.1600  13.0067 0001173  75.2132 318.4890 15.63261823  4388"}}, "geometry": {"type": "Point", "coordinates": [168.11711984528984, 27.450976171081855]}}]}